[{"OBJECT_NAME":"QIANFAN-92","OBJECT_ID":"2025-233B","EPOCH":"2026-03-09T23:18:46.264320","MEAN_MOTION":13.51006079,"ECCENTRICITY":0.00019643,"INCLINATION":88.9921,"RA_OF_ASC_NODE":53.2063,"ARG_OF_PERICENTER":85.6423,"MEAN_ANOMALY":274.4953,"EPHEMERIS_TYPE":0,"CLASSIFICATION_TYPE":"U","NORAD_CAT_ID":66034,"ELEMENT_SET_NO":999,"REV_AT_EPOCH":1978,"BSTAR":4.7358254e-5,"MEAN_MOTION_DOT":4.3e-7,"MEAN_MOTION_DDOT":0},{"OBJECT_NAME":"DELTA 1 DEB","OBJECT_ID":"1975-052DR","EPOCH":"2026-03-09T22:40:26.912352","MEAN_MOTION":13.50277507,"ECCENTRICITY":0.00598193,"INCLINATION":99.7256,"RA_OF_ASC_NODE":233.5899,"ARG_OF_PERICENTER":129.0273,"MEAN_ANOMALY":350.6106,"EPHEMERIS_TYPE":0,"CLASSIFICATION_TYPE":"U","NORAD_CAT_ID":21433,"ELEMENT_SET_NO":999,"REV_AT_EPOCH":71471,"BSTAR":0.00044641222,"MEAN_MOTION_DOT":2.45e-6,"MEAN_MOTION_DDOT":0}]
